{
  "type":"FeatureCollection",
  "name":"sp_mvp_demand_poles",
  "metadata":{"coordinate_policy":"Pontos são aproximações de bairro/campus, arredondadas a 3 casas decimais (~100 m); não servem para engenharia, roteamento ou acessibilidade.","provenance":{"status":"demonstrative","source_id":"mvp-curation-2026-08"}},
  "features":[
    {"type":"Feature","id":"gru","geometry":{"type":"Point","coordinates":[-46.474,-23.435]},"properties":{"name":"Aeroporto Internacional de São Paulo/Guarulhos","category":"airport","geometry_quality":"approximate","provenance":{"status":"reference","source_id":"mvp-curation-2026-08","notes":"Identidade real; ponto arredondado."}}},
    {"type":"Feature","id":"cgh","geometry":{"type":"Point","coordinates":[-46.655,-23.627]},"properties":{"name":"Aeroporto de Congonhas","category":"airport","geometry_quality":"approximate","provenance":{"status":"reference","source_id":"mvp-curation-2026-08","notes":"Identidade real; ponto arredondado."}}},
    {"type":"Feature","id":"usp","geometry":{"type":"Point","coordinates":[-46.730,-23.561]},"properties":{"name":"Cidade Universitária (USP)","category":"university","geometry_quality":"approximate","provenance":{"status":"reference","source_id":"mvp-curation-2026-08","notes":"Identidade real; ponto de referência do campus arredondado."}}},
    {"type":"Feature","id":"unifesp","geometry":{"type":"Point","coordinates":[-46.640,-23.598]},"properties":{"name":"UNIFESP / Hospital São Paulo","category":"university_hospital","geometry_quality":"approximate","provenance":{"status":"reference","source_id":"mvp-curation-2026-08","notes":"Identidade real; localização generalizada."}}},
    {"type":"Feature","id":"hc","geometry":{"type":"Point","coordinates":[-46.674,-23.555]},"properties":{"name":"Complexo Hospital das Clínicas","category":"hospital","geometry_quality":"approximate","provenance":{"status":"reference","source_id":"mvp-curation-2026-08","notes":"Identidade real; localização generalizada."}}},
    {"type":"Feature","id":"barra-funda-terminal","geometry":{"type":"Point","coordinates":[-46.668,-23.525]},"properties":{"name":"Terminal Barra Funda","category":"terminal","geometry_quality":"approximate","provenance":{"status":"reference","source_id":"mvp-curation-2026-08","notes":"Identidade real; localização generalizada."}}},
    {"type":"Feature","id":"santo-amaro-terminal","geometry":{"type":"Point","coordinates":[-46.705,-23.655]},"properties":{"name":"Terminal Santo Amaro","category":"terminal","geometry_quality":"approximate","provenance":{"status":"reference","source_id":"mvp-curation-2026-08","notes":"Identidade real; localização generalizada."}}},
    {"type":"Feature","id":"paulista","geometry":{"type":"Point","coordinates":[-46.653,-23.562]},"properties":{"name":"Eixo Paulista","category":"business_center","geometry_quality":"approximate","provenance":{"status":"demonstrative","source_id":"mvp-curation-2026-08","notes":"Centroide ilustrativo do eixo."},"demand_weight":95}},
    {"type":"Feature","id":"berrini","geometry":{"type":"Point","coordinates":[-46.695,-23.610]},"properties":{"name":"Eixo Berrini/Chucri Zaidan","category":"business_center","geometry_quality":"approximate","provenance":{"status":"demonstrative","source_id":"mvp-curation-2026-08","notes":"Centroide ilustrativo do eixo."},"demand_weight":90}},
    {"type":"Feature","id":"itaquera-polo","geometry":{"type":"Point","coordinates":[-46.474,-23.546]},"properties":{"name":"Polo Itaquera","category":"demand_hub","geometry_quality":"approximate","provenance":{"status":"demonstrative","source_id":"mvp-curation-2026-08","notes":"Peso demonstrativo, sem contagem de viagens."},"demand_weight":80}},
    {"type":"Feature","id":"centro","geometry":{"type":"Point","coordinates":[-46.633,-23.548]},"properties":{"name":"Centro histórico","category":"point_of_interest","geometry_quality":"approximate","provenance":{"status":"demonstrative","source_id":"mvp-curation-2026-08","notes":"Centroide ilustrativo."},"demand_weight":88}}
  ]
}
